STARLINK-35332          
1 65887U 25224F   25299.50001156 -.02024039  00000+0 -22909-1 0  9998
2 65887  53.1597 277.5233 0001391  89.5011  99.1381 15.65127543  4298
STARLINK-35362          
1 65888U 25224G   25299.50001156 -.02026959  00000+0 -22947-1 0  9994
2 65888  53.1596 277.5553 0001510  83.7233  89.5852 15.65126397  4267
STARLINK-35193          
1 65889U 25224H   25299.50001156 -.02025456  00000+0 -22932-1 0  9990
2 65889  53.1587 277.2860 0001046  97.1608 205.7464 15.65126631  4290
STARLINK-34542          
1 65890U 25224J   25299.50001156 -.02022490  00000+0 -22891-1 0  9991
2 65890  53.1597 277.5472 0001491  85.4565  91.6845 15.65124577  4316
STARLINK-34791          
1 65891U 25224K   25299.50001156 -.02020396  00000+0 -22868-1 0  9999
2 65891  53.1587 277.2938 0001089  93.6870 205.3844 15.65124662  4311
STARLINK-34853          
1 65892U 25224L   25299.50001156 -.02026000  00000+0 -22935-1 0  9993
2 65892  53.1596 277.5395 0001390  89.6413  91.3336 15.65126848  4244
STARLINK-34921          
1 65893U 25224M   25299.50001156 -.02025644  00000+0 -22933-1 0  9995
2 65893  53.1588 277.2818 0001039  92.0815 212.7401 15.65127968  4311
STARLINK-34672          
1 65894U 25224N   25299.50001156 -.02021857  00000+0 -22887-1 0  9996
2 65894  53.1587 277.2898 0001055  87.5721 213.4185 15.65124295  4319
STARLINK-34898          
1 65895U 25224P   25299.50001156 -.02020769  00000+0 -22872-1 0  9992
2 65895  53.1587 277.2736 0001091  95.1824 213.4726 15.65125188  4313
STARLINK-34906          
1 65896U 25224Q   25299.50001156 -.02026883  00000+0 -22949-1 0  9991
2 65896  53.1586 277.2777 0001014  90.9186 215.8203 15.65128494  4316
STARLINK-34934          
1 65897U 25224R   25299.50001156 -.02022398  00000+0 -22893-1 0  9997
2 65897  53.1595 277.2654 0001084  89.0165 223.4731 15.65125493  4265
STARLINK-34936          
1 65898U 25224S   25299.50001156 -.02023110  00000+0 -22902-1 0  9992
2 65898  53.1595 277.2696 0001051  98.1999 212.3739 15.65125691  4313
