CCSDS_OMM_VERS = 2.0
CREATION_DATE  = 
ORIGINATOR     = 

OBJECT_NAME    = STARLINK-35332
OBJECT_ID      = 2025-224F
CENTER_NAME    = EARTH
REF_FRAME      = TEME
TIME_SYSTEM    = UTC
MEAN_ELEMENT_THEORY = SGP/SGP4

EPOCH          = 2025-10-26T12:00:00.998784
MEAN_MOTION    = 15.65127543
ECCENTRICITY   = .0001391
INCLINATION    = 53.1597
RA_OF_ASC_NODE = 277.5233
ARG_OF_PERICENTER = 89.5011
MEAN_ANOMALY   = 99.1381

EPHEMERIS_TYPE = 0
CLASSIFICATION_TYPE = U
NORAD_CAT_ID   = 65887
ELEMENT_SET_NO = 999
REV_AT_EPOCH   = 429
BSTAR          = -.22909E-1
MEAN_MOTION_DOT = -.2024039E-1
MEAN_MOTION_DDOT = 0

CCSDS_OMM_VERS = 2.0
CREATION_DATE  = 
ORIGINATOR     = 

OBJECT_NAME    = STARLINK-35362
OBJECT_ID      = 2025-224G
CENTER_NAME    = EARTH
REF_FRAME      = TEME
TIME_SYSTEM    = UTC
MEAN_ELEMENT_THEORY = SGP/SGP4

EPOCH          = 2025-10-26T12:00:00.998784
MEAN_MOTION    = 15.65126397
ECCENTRICITY   = .000151
INCLINATION    = 53.1596
RA_OF_ASC_NODE = 277.5553
ARG_OF_PERICENTER = 83.7233
MEAN_ANOMALY   = 89.5852

EPHEMERIS_TYPE = 0
CLASSIFICATION_TYPE = U
NORAD_CAT_ID   = 65888
ELEMENT_SET_NO = 999
REV_AT_EPOCH   = 426
BSTAR          = -.22947E-1
MEAN_MOTION_DOT = -.2026959E-1
MEAN_MOTION_DDOT = 0

CCSDS_OMM_VERS = 2.0
CREATION_DATE  = 
ORIGINATOR     = 

OBJECT_NAME    = STARLINK-35193
OBJECT_ID      = 2025-224H
CENTER_NAME    = EARTH
REF_FRAME      = TEME
TIME_SYSTEM    = UTC
MEAN_ELEMENT_THEORY = SGP/SGP4

EPOCH          = 2025-10-26T12:00:00.998784
MEAN_MOTION    = 15.65126631
ECCENTRICITY   = .0001046
INCLINATION    = 53.1587
RA_OF_ASC_NODE = 277.2860
ARG_OF_PERICENTER = 97.1608
MEAN_ANOMALY   = 205.7464

EPHEMERIS_TYPE = 0
CLASSIFICATION_TYPE = U
NORAD_CAT_ID   = 65889
ELEMENT_SET_NO = 999
REV_AT_EPOCH   = 429
BSTAR          = -.22932E-1
MEAN_MOTION_DOT = -.2025456E-1
MEAN_MOTION_DDOT = 0

CCSDS_OMM_VERS = 2.0
CREATION_DATE  = 
ORIGINATOR     = 

OBJECT_NAME    = STARLINK-34542
OBJECT_ID      = 2025-224J
CENTER_NAME    = EARTH
REF_FRAME      = TEME
TIME_SYSTEM    = UTC
MEAN_ELEMENT_THEORY = SGP/SGP4

EPOCH          = 2025-10-26T12:00:00.998784
MEAN_MOTION    = 15.65124577
ECCENTRICITY   = .0001491
INCLINATION    = 53.1597
RA_OF_ASC_NODE = 277.5472
ARG_OF_PERICENTER = 85.4565
MEAN_ANOMALY   = 91.6845

EPHEMERIS_TYPE = 0
CLASSIFICATION_TYPE = U
NORAD_CAT_ID   = 65890
ELEMENT_SET_NO = 999
REV_AT_EPOCH   = 431
BSTAR          = -.22891E-1
MEAN_MOTION_DOT = -.202249E-1
MEAN_MOTION_DDOT = 0

CCSDS_OMM_VERS = 2.0
CREATION_DATE  = 
ORIGINATOR     = 

OBJECT_NAME    = STARLINK-34791
OBJECT_ID      = 2025-224K
CENTER_NAME    = EARTH
REF_FRAME      = TEME
TIME_SYSTEM    = UTC
MEAN_ELEMENT_THEORY = SGP/SGP4

EPOCH          = 2025-10-26T12:00:00.998784
MEAN_MOTION    = 15.65124662
ECCENTRICITY   = .0001089
INCLINATION    = 53.1587
RA_OF_ASC_NODE = 277.2938
ARG_OF_PERICENTER = 93.6870
MEAN_ANOMALY   = 205.3844

EPHEMERIS_TYPE = 0
CLASSIFICATION_TYPE = U
NORAD_CAT_ID   = 65891
ELEMENT_SET_NO = 999
REV_AT_EPOCH   = 431
BSTAR          = -.22868E-1
MEAN_MOTION_DOT = -.2020396E-1
MEAN_MOTION_DDOT = 0

CCSDS_OMM_VERS = 2.0
CREATION_DATE  = 
ORIGINATOR     = 

OBJECT_NAME    = STARLINK-34853
OBJECT_ID      = 2025-224L
CENTER_NAME    = EARTH
REF_FRAME      = TEME
TIME_SYSTEM    = UTC
MEAN_ELEMENT_THEORY = SGP/SGP4

EPOCH          = 2025-10-26T12:00:00.998784
MEAN_MOTION    = 15.65126848
ECCENTRICITY   = .000139
INCLINATION    = 53.1596
RA_OF_ASC_NODE = 277.5395
ARG_OF_PERICENTER = 89.6413
MEAN_ANOMALY   = 91.3336

EPHEMERIS_TYPE = 0
CLASSIFICATION_TYPE = U
NORAD_CAT_ID   = 65892
ELEMENT_SET_NO = 999
REV_AT_EPOCH   = 424
BSTAR          = -.22935E-1
MEAN_MOTION_DOT = -.2026E-1
MEAN_MOTION_DDOT = 0

CCSDS_OMM_VERS = 2.0
CREATION_DATE  = 
ORIGINATOR     = 

OBJECT_NAME    = STARLINK-34921
OBJECT_ID      = 2025-224M
CENTER_NAME    = EARTH
REF_FRAME      = TEME
TIME_SYSTEM    = UTC
MEAN_ELEMENT_THEORY = SGP/SGP4

EPOCH          = 2025-10-26T12:00:00.998784
MEAN_MOTION    = 15.65127968
ECCENTRICITY   = .0001039
INCLINATION    = 53.1588
RA_OF_ASC_NODE = 277.2818
ARG_OF_PERICENTER = 92.0815
MEAN_ANOMALY   = 212.7401

EPHEMERIS_TYPE = 0
CLASSIFICATION_TYPE = U
NORAD_CAT_ID   = 65893
ELEMENT_SET_NO = 999
REV_AT_EPOCH   = 431
BSTAR          = -.22933E-1
MEAN_MOTION_DOT = -.2025644E-1
MEAN_MOTION_DDOT = 0

CCSDS_OMM_VERS = 2.0
CREATION_DATE  = 
ORIGINATOR     = 

OBJECT_NAME    = STARLINK-34672
OBJECT_ID      = 2025-224N
CENTER_NAME    = EARTH
REF_FRAME      = TEME
TIME_SYSTEM    = UTC
MEAN_ELEMENT_THEORY = SGP/SGP4

EPOCH          = 2025-10-26T12:00:00.998784
MEAN_MOTION    = 15.65124295
ECCENTRICITY   = .0001055
INCLINATION    = 53.1587
RA_OF_ASC_NODE = 277.2898
ARG_OF_PERICENTER = 87.5721
MEAN_ANOMALY   = 213.4185

EPHEMERIS_TYPE = 0
CLASSIFICATION_TYPE = U
NORAD_CAT_ID   = 65894
ELEMENT_SET_NO = 999
REV_AT_EPOCH   = 431
BSTAR          = -.22887E-1
MEAN_MOTION_DOT = -.2021857E-1
MEAN_MOTION_DDOT = 0

CCSDS_OMM_VERS = 2.0
CREATION_DATE  = 
ORIGINATOR     = 

OBJECT_NAME    = STARLINK-34898
OBJECT_ID      = 2025-224P
CENTER_NAME    = EARTH
REF_FRAME      = TEME
TIME_SYSTEM    = UTC
MEAN_ELEMENT_THEORY = SGP/SGP4

EPOCH          = 2025-10-26T12:00:00.998784
MEAN_MOTION    = 15.65125188
ECCENTRICITY   = .0001091
INCLINATION    = 53.1587
RA_OF_ASC_NODE = 277.2736
ARG_OF_PERICENTER = 95.1824
MEAN_ANOMALY   = 213.4726

EPHEMERIS_TYPE = 0
CLASSIFICATION_TYPE = U
NORAD_CAT_ID   = 65895
ELEMENT_SET_NO = 999
REV_AT_EPOCH   = 431
BSTAR          = -.22872E-1
MEAN_MOTION_DOT = -.2020769E-1
MEAN_MOTION_DDOT = 0

CCSDS_OMM_VERS = 2.0
CREATION_DATE  = 
ORIGINATOR     = 

OBJECT_NAME    = STARLINK-34906
OBJECT_ID      = 2025-224Q
CENTER_NAME    = EARTH
REF_FRAME      = TEME
TIME_SYSTEM    = UTC
MEAN_ELEMENT_THEORY = SGP/SGP4

EPOCH          = 2025-10-26T12:00:00.998784
MEAN_MOTION    = 15.65128494
ECCENTRICITY   = .0001014
INCLINATION    = 53.1586
RA_OF_ASC_NODE = 277.2777
ARG_OF_PERICENTER = 90.9186
MEAN_ANOMALY   = 215.8203

EPHEMERIS_TYPE = 0
CLASSIFICATION_TYPE = U
NORAD_CAT_ID   = 65896
ELEMENT_SET_NO = 999
REV_AT_EPOCH   = 431
BSTAR          = -.22949E-1
MEAN_MOTION_DOT = -.2026883E-1
MEAN_MOTION_DDOT = 0

CCSDS_OMM_VERS = 2.0
CREATION_DATE  = 
ORIGINATOR     = 

OBJECT_NAME    = STARLINK-34934
OBJECT_ID      = 2025-224R
CENTER_NAME    = EARTH
REF_FRAME      = TEME
TIME_SYSTEM    = UTC
MEAN_ELEMENT_THEORY = SGP/SGP4

EPOCH          = 2025-10-26T12:00:00.998784
MEAN_MOTION    = 15.65125493
ECCENTRICITY   = .0001084
INCLINATION    = 53.1595
RA_OF_ASC_NODE = 277.2654
ARG_OF_PERICENTER = 89.0165
MEAN_ANOMALY   = 223.4731

EPHEMERIS_TYPE = 0
CLASSIFICATION_TYPE = U
NORAD_CAT_ID   = 65897
ELEMENT_SET_NO = 999
REV_AT_EPOCH   = 426
BSTAR          = -.22893E-1
MEAN_MOTION_DOT = -.2022398E-1
MEAN_MOTION_DDOT = 0

CCSDS_OMM_VERS = 2.0
CREATION_DATE  = 
ORIGINATOR     = 

OBJECT_NAME    = STARLINK-34936
OBJECT_ID      = 2025-224S
CENTER_NAME    = EARTH
REF_FRAME      = TEME
TIME_SYSTEM    = UTC
MEAN_ELEMENT_THEORY = SGP/SGP4

EPOCH          = 2025-10-26T12:00:00.998784
MEAN_MOTION    = 15.65125691
ECCENTRICITY   = .0001051
INCLINATION    = 53.1595
RA_OF_ASC_NODE = 277.2696
ARG_OF_PERICENTER = 98.1999
MEAN_ANOMALY   = 212.3739

EPHEMERIS_TYPE = 0
CLASSIFICATION_TYPE = U
NORAD_CAT_ID   = 65898
ELEMENT_SET_NO = 999
REV_AT_EPOCH   = 431
BSTAR          = -.22902E-1
MEAN_MOTION_DOT = -.202311E-1
MEAN_MOTION_DDOT = 0

